INSAT-3DR
1 41752U 16054A   26119.00421069 -.00000080  00000+0  00000+0 0  9993
2 41752   0.1205  86.4490 0011386 194.9325  11.0951  1.00271938 35323
